ORBCOMM FM115           
1 41186U 15081H   24363.84363170  .00002713  00000+0  57178-3 0  9998
2 41186  46.9969 129.3679 0001251 283.2581  76.8166 14.61861592482843
ORBCOMM FM108           
1 41187U 15081J   24364.48766718  .00002603  00000+0  60193-3 0  9994
2 41187  47.0020 188.0868 0003117 234.8957 125.1637 14.57657105482117
ORBCOMM FM117           
1 41188U 15081K   24364.52293447  .00001672  00000+0  40000-3 0  9994
2 41188  46.9994 186.7445 0003360 247.5106 112.5424 14.57648435482131
ORBCOMM FM116           
1 41189U 15081L   24364.10151052  .00003133  00000+0  71688-3 0  9994
2 41189  47.0015 278.5786 0002272 339.6938  20.3857 14.57656038480900
